IRIDIUM 921             
1 24873U 97034E   24325.24264660  .00106728  00000+0  11691-2 0  9996
2 24873  86.3745 209.7758 0005921  58.6852 301.4994 15.62900903499320
IRIDIUM 26              
1 24903U 97043A   24325.63334882  .00000690  00000+0  22732-3 0  9997
2 24903  86.4005 198.1282 0002288  81.2777 278.8679 14.36802639426793
IRIDIUM 22              
1 24907U 97043E   24325.46302205  .00000588  00000+0  19719-3 0  9993
2 24907  86.4009 201.5564 0002057  82.9043 277.2387 14.35653391426822
DUMMY MASS 1            
1 24925U 97048A   24325.17587408  .00000831  00000+0  90530-4 0  9998
2 24925  86.3374 231.8751 0007553 148.7758 211.3916 14.86625165474071
DUMMY MASS 2            
1 24926U 97048B   24325.50729121  .00000855  00000+0  93773-4 0  9994
2 24926  86.3372 233.2915 0007902 159.5995 200.5546 14.86381006473902
IRIDIUM 29              
1 24944U 97051A   24325.48663306  .00000729  00000+0  24375-3 0  9998
2 24944  86.3986 231.3434 0002064  86.0553 274.0880 14.36113296423312
IRIDIUM 33              
1 24946U 97051C   24325.17697986  .00000523  00000+0  17814-3 0  9999
2 24946  86.3903 230.7205 0009622  49.5040 310.6993 14.34652500422779
IRIDIUM 28              
1 24948U 97051E   24325.17809175  .00000720  00000+0  23624-3 0  9991
2 24948  86.3994 229.1079 0002605  77.3126 282.8363 14.37061247423823
